0 IRIDIUM 166
1 43570U 18061B   24005.21146409  .00000271  00000-0  89562-4 0  9997
2 43570  86.3952  70.3549 0002092  85.8087 274.3348 14.34218517285261
0 IRIDIUM 158
1 43571U 18061C   24004.69137044  .00000317  00000-0  10622-3 0  9995
2 43571  86.3956  70.5817 0001844  96.6721 263.4685 14.34217285285157
0 IRIDIUM 165
1 43572U 18061D   24004.92604657  .00000257  00000-0  84581-4 0  9990
2 43572  86.3956  70.5127 0001837  94.1293 266.0113 14.34217637285214
0 IRIDIUM 155
1 43573U 18061E   24005.23683480  .00000286  00000-0  95101-4 0  9999
2 43573  86.3951  70.2960 0002323  88.8866 271.2596 14.34217441285237
0 IRIDIUM 154
1 43574U 18061F   24005.21780481  .00000274  00000-0  90886-4 0  9999
2 43574  86.3956  70.3941 0002225 102.0717 258.0728 14.34217630285272
0 IRIDIUM 163
1 43575U 18061G   24005.19877691  .00000231  00000-0  75499-4 0  9993
2 43575  86.3952  70.3451 0002215  97.1027 263.0420 14.34218984285247
0 IRIDIUM 156
1 43576U 18061H   24005.24317512  .00000231  00000-0  75314-4 0  9997
2 43576  86.3953  70.3326 0001940  89.7652 270.3766 14.34216718285231
0 IRIDIUM 164
1 43577U 18061J   24004.66600017  .00000146  00000-0  44964-4 0  9990
2 43577  86.3955  70.6005 0001905  96.5473 263.5940 14.34216215285206
